OPTICUBE 04             
1 41851U 16067D   18182.23083359 -.00000260  00000-0 -17489-4 0  9995
2 41851  97.9237 270.5311 0010025 115.4096 244.8164 14.96676458 89193
AEROCUBE 8D             
1 41852U 16067E   18182.20246932  .00000575  00000-0  55922-4 0  9992
2 41852  97.9257 270.3443 0011270 114.8032 245.4362 14.96508913 89171
AEROCUBE 8C             
1 41853U 16067F   18182.21694317 -.00000208  00000-0 -12972-4 0  9991
2 41853  97.9255 270.3212 0011364 115.8325 244.4069 14.96472811 89174
PROMETHEUS 2-1          
1 41854U 16067G   18182.22240313 -.00000161  00000-0 -88032-5 0  9995
2 41854  97.9259 270.3390 0011604 116.0326 244.2091 14.96581075 89173
PROMETHEUS 2-3          
1 41855U 16067H   18182.22505426 -.00000146  00000-0 -74476-5 0  9995
2 41855  97.9260 270.3465 0011734 116.6894 243.5530 14.96577970 89178
ITF-2                   
1 41932U 98067KU  18181.67640418  .00027596  00000-0  16722-3 0  9994
2 41932  51.6306 271.2758 0003829 284.7608  75.2968 15.77332804 82895
WASEDA-SAT3             
1 41933U 98067KV  18181.65458505  .00051373  00000-0  21639-3 0  9990
2 41933  51.6327 263.4659 0004158 310.3778  49.6862 15.84929333 82998
AOBA-VELOX 3            
1 41935U 98067KX  18181.71905781  .00040383  00000-0  19760-3 0  9993
2 41935  51.6347 266.2490 0003902 299.5787  60.4826 15.81855059 83060
INS-1B                  
1 41954U 17008G   18181.72355631  .00001196  00000-0  53766-4 0  9998
2 41954  97.4451 245.5749 0008055 313.1405  46.9157 15.23049916 76067
BGUSAT                  
1 41999U 17008BD  18181.87934472  .00001942  00000-0  81541-4 0  9990
2 41999  97.4497 246.8280 0007446 333.7823  26.3037 15.24658392 75518
DIDO-2                  
1 42000U 17008BE  18181.72936265  .00000893  00000-0  40729-4 0  9997
2 42000  97.4469 246.0192 0007785 335.2476  24.8386 15.23228961 75460
PEASSS                  
1 42015U 17008BV  18181.89752967  .00001060  00000-0  46648-4 0  9999
2 42015  97.4467 246.6590 0005898 346.4599  13.6479 15.24046303 76004
AL-FARABI 1             
1 42016U 17008BW  18181.82077332  .00001385  00000-0  59326-4 0  9996
2 42016  97.4474 246.7902 0005784 347.3226  12.7865 15.24468956 76126
NAYIF-1 (EO-88)         
1 42017U 17008BX  18181.88044767  .00001372  00000-0  58759-4 0  9994
2 42017  97.4473 246.8563 0005748 347.3750  12.7343 15.24493363 76156
HAVELSAT                
1 42700U 98067LH  18181.81931995  .00022595  00000-0  17307-3 0  9991
2 42700  51.6353 285.0220 0004554 309.5999  50.4597 15.72018676 64169
CXBN-2                  
1 42704U 98067LM  18181.52663178  .00021442  00000-0  16774-3 0  9995
2 42704  51.6356 287.5854 0001854 268.9840  91.0945 15.71559625 64025
ICECUBE                 
1 42705U 98067LN  18181.72561920  .00060418  00000-0  29450-3 0  9991
2 42705  51.6449 277.7392 0003345 320.7505  39.3254 15.81765926 64234
PHOENIX                 
1 42706U 98067LP  18181.73302887  .00016003  00000-0  13616-3 0  9996
2 42706  51.6361 287.4607 0001184 272.6644  87.4217 15.69769181 64037
X-CUBESAT               
1 42707U 98067LQ  18181.73163060  .00024047  00000-0  17924-3 0  9998
2 42707  51.6316 285.1143 0001770 291.6985  68.3825 15.72630629 64051
QBEE50-LTU-OC           
1 42708U 98067LR  18181.87700775  .00023650  00000-0  18320-3 0  9994
2 42708  51.6361 285.4038 0001652 290.9631  69.1190 15.71727170 64025
ALTAIR PATHFINDER       
1 42711U 98067LS  18181.92474435  .00011065  00000-0  11671-3 0  9994
2 42711  51.6367 294.0120 0003372 236.8088 123.2584 15.64798528 63620
SHARC                   
1 42712U 98067LT  18181.86407867  .00018029  00000-0  18557-3 0  9990
2 42712  51.6383 295.9163 0002430 258.3179 101.7543 15.64928669 63830
ZA-AEROSAT              
1 42713U 98067LU  18181.83697283  .00014285  00000-0  12889-3 0  9993
2 42713  51.6353 289.6438 0001827 240.6391 119.4423 15.68437166 63678
LINK                    
1 42714U 98067LV  18181.85029689  .00061892  00000-0  29212-3 0  9999
2 42714  51.6240 276.7584 0003504 311.4039  48.6662 15.82447811 63956
CSUNSAT 1               
1 42715U 98067LW  18181.91440646  .00018153  00000-0  15802-3 0  9999
2 42715  51.6359 288.6819 0003258 237.8868 122.1813 15.69099964 63692
SPACECUBE               
1 42717U 98067LY  18181.90401583  .00023285  00000-0  18130-3 0  9996
2 42717  51.6331 285.5571 0003454 309.7899  50.2794 15.71611489 63106
HOOPOE                  
1 42718U 98067LZ  18181.91233733  .00029060  00000-0  19865-3 0  9991
2 42718  51.6342 282.6129 0003746 311.6594  48.4085 15.74538403 63147
CHALLENGER              
1 42721U 98067MA  18181.68473397  .00123815  16829-4  38313-3 0  9993
2 42721  51.6263 271.8509 0008588 326.6510  33.3954 15.91445954 62962
NJUST-1                 
1 42722U 98067MB  18182.16108796  .00013202  00000-0  12435-3 0  9991
2 42722  51.6361 289.5828 0005321 288.8735  71.1684 15.67444364 62778
UNSW-ECO                
1 42723U 98067MC  18181.84281391  .00033022  00000-0  21694-3 0  9998
2 42723  51.6382 282.9364 0005224 298.4384  61.6089 15.75378660 62815
LILACSAT-1              
1 42725U 98067ME  18182.18019483  .00016065  00000-0  13488-3 0  9999
2 42725  51.6363 286.6989 0004556 294.0950  65.9571 15.70084176 62711
NSIGHT-1                
1 42726U 98067MF  18181.62417272  .00005649  00000-0  70057-4 0  9998
2 42726  51.6395 299.5667 0004861 285.2584  74.7872 15.61738034 62505
SNUSAT-1                
1 42727U 98067MG  18181.74663504  .00019005  00000-0  15893-3 0  9990
2 42727  51.6339 288.9987 0005667 257.3361 102.7003 15.70030647 62614
I-INSPIRE II            
1 42731U 98067ML  18181.70381539  .00034478  00000-0  22062-3 0  9993
2 42731  51.6359 282.6750 0004552 259.6094 100.4392 15.75964045 62585
POLYITAN-2-SAU          
1 42732U 98067MM  18181.86600173  .00024391  00000-0  18328-3 0  9992
2 42732  51.6344 285.3020 0004808 250.3529 109.6951 15.72420546 62565
SNUSAT-1B               
1 42733U 98067MN  18181.71201289  .00022029  00000-0  17771-3 0  9999
2 42733  51.6352 288.0448 0005029 249.1927 110.8532 15.70792812 62513
EXALTA-1                
1 42734U 98067MP  18181.87032626  .00036238  00000-0  22330-3 0  9998
2 42734  51.6285 281.4974 0006305 285.4066  74.6237 15.76786563 62561
BEEAGLESAT              
1 42736U 98067MR  18181.72099512  .00018465  00000-0  15920-3 0  9990
2 42736  51.6350 289.6063 0005612 286.6200  73.4180 15.69310451 62552
UCLSAT                  
1 42765U 17036A   18181.88519770  .00001175  00000-0  54578-4 0  9992
2 42765  97.3998 241.5129 0012734  35.9820 324.2271 15.21892125 57389
LITUANICASAT-2          
1 42768U 17036D   18181.94668395  .00001855  00000-0  85450-4 0  9998
2 42768  97.4014 241.1670 0016281  24.5473 335.6534 15.21437052 56659
AALTO-1                 
1 42775U 17036L   18181.71915884  .00000719  00000-0  35696-4 0  9994
2 42775  97.3992 240.8148 0014801  23.9128 336.2792 15.20776785 56553
URSA MAIOR              
1 42776U 17036M   18181.90241428  .00000813  00000-0  39862-4 0  9996
2 42776  97.3998 241.0485 0014630  23.5946 336.5958 15.20857905 56585
COMPASS 2               
1 42777U 17036N   18181.88615449  .00001524  00000-0  70126-4 0  9990
2 42777  97.4020 241.4417 0013606  27.4752 332.7200 15.21785595 56597
DIAMOND RED             
1 42783U 17036U   18182.15074871  .00000941  00000-0  44845-4 0  9997
2 42783  97.3999 241.6228 0013321  34.7498 325.4606 15.21494316 56634
PEGASUS                 
1 42784U 17036V   18181.85859695  .00001117  00000-0  52315-4 0  9996
2 42784  97.4001 241.4096 0013254  35.7493 324.4628 15.21700178 56596
DIAMOND GREEN           
1 42785U 17036W   18181.68924769  .00000969  00000-0  46058-4 0  9994
2 42785  97.4001 241.1825 0013262  36.9512 323.2635 15.21495852 56638
DIAMOND BLUE            
1 42786U 17036X   18182.14875878  .00000945  00000-0  44997-4 0  9997
2 42786  97.4002 241.6345 0013061  35.6958 324.5149 15.21496171 56627
NUDTSAT                 
1 42787U 17036Y   18181.90313355  .00001643  00000-0  74262-4 0  9992
2 42787  97.4009 241.6678 0012763  35.6224 324.5862 15.22291233 56454
SUCHAI                  
1 42788U 17036Z   18181.74767372  .00001302  00000-0  60040-4 0  9998
2 42788  97.4003 241.4044 0012872  36.2192 323.9913 15.21974496 56656
SKCUBE                  
1 42789U 17036AA  18181.94468044  .00001192  00000-0  55262-4 0  9992
2 42789  97.4000 241.5917 0012691  35.6690 324.5392 15.21934598 56601
VZLUSAT-1               
1 42790U 17036AB  18181.89225320  .00001616  00000-0  73073-4 0  9997
2 42790  97.4006 241.6646 0012336  36.2402 323.9668 15.22312049 56604
ROBUSTA-1B              
1 42792U 17036AD  18181.71483988  .00001285  00000-0  59096-4 0  9997
2 42792  97.4000 241.4307 0012315  37.5853 322.6241 15.22077937 56587
CICERO 6                
1 42793U 17036AE  18182.17080670  .00000877  00000-0  41508-4 0  9995
2 42793  97.3992 241.8710 0011473  37.6614 322.5423 15.21907940 56721
D-SAT                   
1 42794U 17036AF  18181.80235397  .00000047  00000-0  98269-5 0  9999
2 42794  97.5903 235.9455 0125726 236.5485 122.3663 14.90879483 55758
TOKI                    
1 42820U 98067MU  18181.73532580  .00017318  00000-0  15524-3 0  9998
2 42820  51.6353 291.9601 0002351 230.2602 129.8188 15.68419478 55982
MAZAALAI (NUMSAT-1)     
1 42822U 98067MW  18181.77137944  .00017368  00000-0  15755-3 0  9990
2 42822  51.6355 292.2070 0002375 235.1250 124.9523 15.68124429 55987
BRAC ONNESHA            
1 42823U 98067MX  18181.76654824  .00017791  00000-0  16055-3 0  9995
2 42823  51.6360 292.1942 0004776 249.9988 110.0494 15.68225441 55988
NIGERIAEDUSAT-1         
1 42824U 98067MY  18181.72881172  .00016604  00000-0  15155-3 0  9992
2 42824  51.6366 292.7084 0004703 249.3332 110.7160 15.68003845 55973
CORVUS BC2              
1 42846U 17042X   18181.95654825  .00000194  00000-0  24496-4 0  9994
2 42846  97.5962  84.3331 0010441 143.1207 217.0732 14.91826985 52422
